{
  "fetched_at": "2026-07-23T01:45:21.071160+00:00",
  "satellites": {
    "57166": {
      "name": "Meteor M2-3",
      "tle_line1": "1 57166U 23091A   26203.58089069 -.00000021  00000+0  97421-5 0  9999",
      "tle_line2": "2 57166  98.6063 257.8311 0005061  73.8553 286.3183 14.24049325159559"
    },
    "59051": {
      "name": "Meteor M2-4",
      "tle_line1": "1 59051U 24039A   26203.63576438 -.00000005  00000+0  17317-4 0  9991",
      "tle_line2": "2 59051  98.7031 162.4923 0008204  70.3200 289.8862 14.22432663124309"
    },
    "38771": {
      "name": "MetOp-B",
      "tle_line1": "1 38771U 12049A   26203.52580751  .00000061  00000+0  47717-4 0  9994",
      "tle_line2": "2 38771  98.6484 254.3164 0001386 217.6689 142.4392 14.21447825718288"
    },
    "43689": {
      "name": "MetOp-C",
      "tle_line1": "1 43689U 18087A   26203.54326465  .00000051  00000+0  42936-4 0  9995",
      "tle_line2": "2 43689  98.6624 262.4969 0002079  84.3319 275.8096 14.21504218399850"
    },
    "60543": {
      "name": "Arctic Weather Satellite",
      "tle_line1": "1 60543U 24149CD  26203.48217708  .00000329  00000+0  39815-4 0  9991",
      "tle_line2": "2 60543  97.6781 272.9357 0002263  34.7349 325.4016 14.89811237104556"
    }
  }
}